*******************************************************************************
Ephemeris / WWW_USER Mon Mar 10 07:11:08 2025 Pasadena, USA      / Horizons    
*******************************************************************************
Target body name: (2018 OZ)                       {source: JPL#6}
Center body name: Earth (399)                     {source: DE441}
Center-site name: Mauna Kea
*******************************************************************************
Start time      : A.D. 2018-Aug-09 05:04:00.0000 UT      
Stop  time      : A.D. 2018-Aug-09 15:50:00.0000 UT      
Step-size       : 1 minutes
*******************************************************************************
Target pole/equ : undefined
Target radii    : undefined                                                    
Center geodetic : 204.5278, 19.8260847, 4.21024   {E-lon(deg),Lat(deg),Alt(km)}
Center cylindric: 204.5278, 6006.35451, 2151.0229 {E-lon(deg),Dxy(km),Dz(km)}
Center pole/equ : ITRF93                          {East-longitude positive}
Center radii    : 6378.137, 6378.137, 6356.752 km {Equator_a, b, pole_c}       
Target primary  : Sun
Vis. interferer : MOON (R_eq= 1737.400) km        {source: DE441}
Rel. light bend : Sun                             {source: DE441}
Rel. lght bnd GM: 1.3271E+11 km^3/s^2                                          
Small-body perts: Yes                             {source: SB441-N16}
Atmos refraction: NO (AIRLESS)
RA format       : HMS
Time format     : CAL 
Calendar mode   : Mixed Julian/Gregorian
RTS-only print  : NO       
EOP file        : eop.250307.p250603                                           
EOP coverage    : DATA-BASED 1962-JAN-20 TO 2025-MAR-07. PREDICTS-> 2025-JUN-02
Units conversion: 1 au= 149597870.700 km, c= 299792.458 km/s, 1 day= 86400.0 s 
Table cut-offs 1: Elevation (-90.0deg=NO ),Airmass (>38.000=NO), Daylight (YES)
Table cut-offs 2: Solar elongation (  0.0,180.0=NO ),Local Hour Angle( 0.0=NO )
Table cut-offs 3: RA/DEC angular rate (     0.0=NO )                           
*******************************************************************************
Initial IAU76/J2000 heliocentric ecliptic osculating elements (au, days, deg.):
  EPOCH=  2458323.5 ! 2018-Jul-24.00 (TDB)         Residual RMS= .14478        
   EC= .2444891433359997   QR= .7813773137930096   TP= 2458414.1453434308      
   OM= 132.5941973996665   W=  282.5797798661226   IN= 11.86066121595313       
  Equivalent ICRF heliocentric cartesian coordinates (au, au/d):
   X= 5.818664496311505E-01  Y=-8.413793559776328E-01  Z=-3.233166781784031E-01
  VX= 1.092981696788880E-02 VY= 1.198494789184266E-02 VZ= 1.554952570596135E-03
Asteroid physical parameters (km, seconds, rotational period in hours):        
   GM= n.a.                RAD= n.a.               ROTPER= n.a.                
   H= 24.9                 G= .150                 B-V= n.a.                   
                           ALBEDO= n.a.            STYP= n.a.                  
*******************************************************************************
 Date__(UT)__HR:MN     R.A._________(ICRF)_________DEC
******************************************************
$$SOE
 2018-Aug-09 05:04 C   05 15 03.579022 -23 05 55.59073
 2018-Aug-09 05:05 C   05 15 05.547154 -23 05 59.78768
 2018-Aug-09 05:06 C   05 15 07.515069 -23 06 03.98468
 2018-Aug-09 05:07 C   05 15 09.482766 -23 06 08.18173
 2018-Aug-09 05:08 C   05 15 11.450242 -23 06 12.37883
 2018-Aug-09 05:09 C   05 15 13.417497 -23 06 16.57599
 2018-Aug-09 05:10 C   05 15 15.384528 -23 06 20.77321
 2018-Aug-09 05:11 C   05 15 17.351334 -23 06 24.97049
 2018-Aug-09 05:12 C   05 15 19.317912 -23 06 29.16785
 2018-Aug-09 05:13 C   05 15 21.284261 -23 06 33.36528
 2018-Aug-09 05:14 C   05 15 23.250379 -23 06 37.56278
 2018-Aug-09 05:15 C   05 15 25.216264 -23 06 41.76037
 2018-Aug-09 05:16 C   05 15 27.181914 -23 06 45.95805
 2018-Aug-09 05:17 C   05 15 29.147328 -23 06 50.15581
 2018-Aug-09 05:18 N   05 15 31.112503 -23 06 54.35367
 2018-Aug-09 05:19 N   05 15 33.077438 -23 06 58.55162
 2018-Aug-09 05:20 N   05 15 35.042130 -23 07 02.74968
 2018-Aug-09 05:21 N   05 15 37.006579 -23 07 06.94784
 2018-Aug-09 05:22 N   05 15 38.970781 -23 07 11.14610
 2018-Aug-09 05:23 N   05 15 40.934736 -23 07 15.34448
 2018-Aug-09 05:24 N   05 15 42.898441 -23 07 19.54298
 2018-Aug-09 05:25 N   05 15 44.861895 -23 07 23.74159
 2018-Aug-09 05:26 N   05 15 46.825095 -23 07 27.94033
 2018-Aug-09 05:27 N   05 15 48.788040 -23 07 32.13919
 2018-Aug-09 05:28 N   05 15 50.750728 -23 07 36.33818
 2018-Aug-09 05:29 N   05 15 52.713157 -23 07 40.53730
 2018-Aug-09 05:30 N   05 15 54.675325 -23 07 44.73655
 2018-Aug-09 05:31 N   05 15 56.637231 -23 07 48.93595
 2018-Aug-09 05:32 N   05 15 58.598872 -23 07 53.13549
 2018-Aug-09 05:33 N   05 16 00.560246 -23 07 57.33517
 2018-Aug-09 05:34 N   05 16 02.521353 -23 08 01.53500
 2018-Aug-09 05:35 N   05 16 04.482189 -23 08 05.73499
 2018-Aug-09 05:36 N   05 16 06.442752 -23 08 09.93512
 2018-Aug-09 05:37 N   05 16 08.403042 -23 08 14.13542
 2018-Aug-09 05:38 N   05 16 10.363056 -23 08 18.33587
 2018-Aug-09 05:39 N   05 16 12.322793 -23 08 22.53649
 2018-Aug-09 05:40 N   05 16 14.282250 -23 08 26.73727
 2018-Aug-09 05:41 N   05 16 16.241425 -23 08 30.93822
 2018-Aug-09 05:42 N   05 16 18.200317 -23 08 35.13934
 2018-Aug-09 05:43 N   05 16 20.158923 -23 08 39.34064
 2018-Aug-09 05:44 N   05 16 22.117243 -23 08 43.54212
 2018-Aug-09 05:45 N   05 16 24.075273 -23 08 47.74377
 2018-Aug-09 05:46 A   05 16 26.033013 -23 08 51.94560
 2018-Aug-09 05:47 A   05 16 27.990460 -23 08 56.14762
 2018-Aug-09 05:48 A   05 16 29.947612 -23 09 00.34983
 2018-Aug-09 05:49 A   05 16 31.904467 -23 09 04.55223
 2018-Aug-09 05:50 A   05 16 33.861024 -23 09 08.75482
 2018-Aug-09 05:51 A   05 16 35.817281 -23 09 12.95760
 2018-Aug-09 05:52 A   05 16 37.773235 -23 09 17.16058
 2018-Aug-09 05:53 A   05 16 39.728886 -23 09 21.36376
 2018-Aug-09 05:54 A   05 16 41.684230 -23 09 25.56714
 2018-Aug-09 05:55 A   05 16 43.639266 -23 09 29.77072
 2018-Aug-09 05:56 A   05 16 45.593992 -23 09 33.97450
 2018-Aug-09 05:57 A   05 16 47.548407 -23 09 38.17850
 2018-Aug-09 05:58 A   05 16 49.502508 -23 09 42.38270
 2018-Aug-09 05:59 A   05 16 51.456294 -23 09 46.58712
 2018-Aug-09 06:00 A   05 16 53.409762 -23 09 50.79175
 2018-Aug-09 06:01 A   05 16 55.362910 -23 09 54.99659
 2018-Aug-09 06:02 A   05 16 57.315738 -23 09 59.20166
 2018-Aug-09 06:03 A   05 16 59.268242 -23 10 03.40694
 2018-Aug-09 06:04 A   05 17 01.220422 -23 10 07.61244
 2018-Aug-09 06:05 A   05 17 03.172274 -23 10 11.81816
 2018-Aug-09 06:06 A   05 17 05.123798 -23 10 16.02411
 2018-Aug-09 06:07 A   05 17 07.074991 -23 10 20.23028
 2018-Aug-09 06:08 A   05 17 09.025852 -23 10 24.43669
 2018-Aug-09 06:09 A   05 17 10.976378 -23 10 28.64332
 2018-Aug-09 06:10 A   05 17 12.926567 -23 10 32.85018
 2018-Aug-09 06:11 A   05 17 14.876418 -23 10 37.05727
 2018-Aug-09 06:12 A   05 17 16.825929 -23 10 41.26460
 2018-Aug-09 06:13     05 17 18.775098 -23 10 45.47216
 2018-Aug-09 06:14     05 17 20.723923 -23 10 49.67996
 2018-Aug-09 06:15     05 17 22.672402 -23 10 53.88799
 2018-Aug-09 06:16     05 17 24.620534 -23 10 58.09627
 2018-Aug-09 06:17     05 17 26.568315 -23 11 02.30478
 2018-Aug-09 06:18     05 17 28.515745 -23 11 06.51353
 2018-Aug-09 06:19     05 17 30.462822 -23 11 10.72253
 2018-Aug-09 06:20     05 17 32.409543 -23 11 14.93177
 2018-Aug-09 06:21     05 17 34.355907 -23 11 19.14125
 2018-Aug-09 06:22     05 17 36.301912 -23 11 23.35098
 2018-Aug-09 06:23     05 17 38.247555 -23 11 27.56096
 2018-Aug-09 06:24     05 17 40.192836 -23 11 31.77118
 2018-Aug-09 06:25     05 17 42.137752 -23 11 35.98165
 2018-Aug-09 06:26     05 17 44.082301 -23 11 40.19237
 2018-Aug-09 06:27     05 17 46.026481 -23 11 44.40333
 2018-Aug-09 06:28     05 17 47.970291 -23 11 48.61455
 2018-Aug-09 06:29     05 17 49.913729 -23 11 52.82602
 2018-Aug-09 06:30     05 17 51.856792 -23 11 57.03774
 2018-Aug-09 06:31     05 17 53.799479 -23 12 01.24971
 2018-Aug-09 06:32     05 17 55.741788 -23 12 05.46194
 2018-Aug-09 06:33     05 17 57.683717 -23 12 09.67441
 2018-Aug-09 06:34     05 17 59.625264 -23 12 13.88714
 2018-Aug-09 06:35     05 18 01.566427 -23 12 18.10013
 2018-Aug-09 06:36     05 18 03.507205 -23 12 22.31337
 2018-Aug-09 06:37     05 18 05.447595 -23 12 26.52686
 2018-Aug-09 06:38     05 18 07.387596 -23 12 30.74061
 2018-Aug-09 06:39     05 18 09.327205 -23 12 34.95461
 2018-Aug-09 06:40     05 18 11.266421 -23 12 39.16887
 2018-Aug-09 06:41     05 18 13.205242 -23 12 43.38338
 2018-Aug-09 06:42     05 18 15.143666 -23 12 47.59815
 2018-Aug-09 06:43     05 18 17.081692 -23 12 51.81317
 2018-Aug-09 06:44     05 18 19.019316 -23 12 56.02845
 2018-Aug-09 06:45     05 18 20.956538 -23 13 00.24398
 2018-Aug-09 06:46     05 18 22.893356 -23 13 04.45977
 2018-Aug-09 06:47     05 18 24.829767 -23 13 08.67582
 2018-Aug-09 06:48     05 18 26.765770 -23 13 12.89211
 2018-Aug-09 06:49     05 18 28.701363 -23 13 17.10867
 2018-Aug-09 06:50     05 18 30.636544 -23 13 21.32548
 2018-Aug-09 06:51     05 18 32.571311 -23 13 25.54254
 2018-Aug-09 06:52     05 18 34.505662 -23 13 29.75985
 2018-Aug-09 06:53     05 18 36.439596 -23 13 33.97742
 2018-Aug-09 06:54     05 18 38.373111 -23 13 38.19524
 2018-Aug-09 06:55     05 18 40.306204 -23 13 42.41332
 2018-Aug-09 06:56     05 18 42.238874 -23 13 46.63164
 2018-Aug-09 06:57     05 18 44.171119 -23 13 50.85022
 2018-Aug-09 06:58     05 18 46.102937 -23 13 55.06905
 2018-Aug-09 06:59     05 18 48.034326 -23 13 59.28812
 2018-Aug-09 07:00     05 18 49.965285 -23 14 03.50745
 2018-Aug-09 07:01     05 18 51.895811 -23 14 07.72702
 2018-Aug-09 07:02     05 18 53.825903 -23 14 11.94685
 2018-Aug-09 07:03     05 18 55.755559 -23 14 16.16692
 2018-Aug-09 07:04     05 18 57.684776 -23 14 20.38723
 2018-Aug-09 07:05     05 18 59.613554 -23 14 24.60779
 2018-Aug-09 07:06     05 19 01.541891 -23 14 28.82860
